IRIDIUM 119             
1 42959U 17061E   24346.83910478  .00000115  00000+0  33954-4 0  9997
2 42959  86.3971 256.0236 0002237  73.5279 286.6162 14.34218215375643
IRIDIUM 107             
1 42960U 17061F   24346.78836336  .00000184  00000+0  58757-4 0  9997
2 42960  86.3973 256.0626 0001811  73.3784 286.7611 14.34218655375644
IRIDIUM 132             
1 42961U 17061G   24346.86445698  .00000276  00000+0  91563-4 0  9998
2 42961  86.3972 256.0143 0001938  80.0878 280.0536 14.34213171375659
IRIDIUM 136             
1 42962U 17061H   24346.82642432  .00000608  00000+0  20999-3 0  9993
2 42962  86.3971 256.0341 0002108  72.2116 287.9309 14.34216679375668
IRIDIUM 139             
1 42963U 17061J   24346.83278471  .00000426  00000+0  14507-3 0  9999
2 42963  86.3971 256.0845 0001980  75.0067 285.1348 14.34219270375675
IRIDIUM 125             
1 42964U 17061K   24346.88982377  .00000591  00000+0  20389-3 0  9990
2 42964  86.3975 256.1116 0002336  66.0630 294.0810 14.34226748375697
IRIDIUM 135             
1 43070U 17083A   24346.86398448  .00000562  00000+0  19357-3 0  9992
2 43070  86.3994 192.8392 0002014  93.9599 266.1827 14.34217400364988
IRIDIUM 138             
1 43071U 17083B   24346.81957202  .00000271  00000+0  89740-4 0  9998
2 43071  86.3983 192.5530 0002603  78.0743 282.0745 14.34216223364963
